COSMOS 1408 DEB         
1 49527U 82092Q   24357.94242862  .00138109  00000+0  66417-2 0  9993
2 49527  82.3637 194.5343 0216185 185.5536 174.3293 15.00068076162880
COSMOS 1408 DEB         
1 49537U 82092AA  24357.84552295  .00037049  00000+0  10049-2 0  9998
2 49537  82.5454 105.6658 0087434 117.9007 243.1125 15.33575442170634
COSMOS 1408 DEB         
1 49619U 82092DL  24357.36780576  .00550775  00000+0  97579-2 0  9990
2 49619  81.9129 126.3039 0112204 209.3675 150.1237 15.41893835163159
COSMOS 1408 DEB         
1 50032U 82092RU  24357.58338430  .00006747  00000+0  16098-3 0  9996
2 50032  82.5650  61.2823 0018605  62.6258 297.6879 15.41145669171255
COSMOS 1408 DEB         
1 50058U 82092SW  24357.87707898  .00022130  00000+0  45027-3 0  9992
2 50058  82.6150  75.3373 0023864 327.1538  32.8226 15.45823405172923
COSMOS 1408 DEB         
1 50351U 82092ABM 24357.74118010  .00244133  00000+0  26004-2 0  9998
2 50351  82.5018 105.9805 0052747 134.4248 226.1345 15.61484143170366
COSMOS 1408 DEB         
1 50404U 82092ADS 24358.04601117  .00055932  00000+0  45912-2 0  9992
2 50404  82.2323 202.7041 0345137 288.0625  68.3264 14.62456417159245
COSMOS 1408 DEB         
1 50621U 82092ALR 24357.22904990  .00019753  00000+0  47518-3 0  9993
2 50621  82.5758  79.3956 0040436   9.8175 350.3851 15.40283559167491
COSMOS 1408 DEB         
1 50689U 82092APM 24358.15839259  .00130212  00000+0  76877-3 0  9999
2 50689  82.5026  45.1927 0021098 242.0105 117.9026 15.77432337168019
COSMOS 1408 DEB         
1 51184U 82092AZJ 24358.13918957  .00067658  00000+0  61833-3 0  9990
2 51184  82.4859  41.9361 0011416 249.1207 110.8832 15.67502004165903
COSMOS 1408 DEB         
1 51435U 82092BKH 24358.19139671  .00142955  00000+0  12768-2 0  9999
2 51435  82.5439  75.0862 0027081   9.8851 350.2936 15.67463362163302
COSMOS 1408 DEB         
1 52066U 82092BUU 24357.22955291  .00159727  00000+0  32403-2 0  9990
2 52066  82.5088 115.3698 0087431 177.3849 182.7875 15.41714890155040
